ONEWEB-0545             
1 54647U 22166F   25355.75809817  .00000020  00000+0  16941-4 0  9994
2 54647  87.9228 279.3760 0002123  82.8510 277.2865 13.21827302148065
ONEWEB-0580             
1 54648U 22166G   25355.80747541  .00000057  00000+0  10570-3 0  9997
2 54648  87.9226 279.3652 0001967  85.4611 274.6748 13.21826963148119
ONEWEB-0582             
1 54649U 22166H   25356.15304168  .00000163  00000+0  36310-3 0  9999
2 54649  87.9228 279.2893 0002134  87.5446 272.5932 13.21826497148130
ONEWEB-0583             
1 54650U 22166J   25355.78607946  .00000010  00000+0 -71125-5 0  9996
2 54650  87.9225 279.3869 0001882  77.3449 282.7895 13.21826469148097
ONEWEB-0584             
1 54651U 22166K   25355.80582436  .00000076  00000+0  15276-3 0  9990
2 54651  87.9226 279.3695 0001902  86.9189 273.2162 13.21825735148082
ONEWEB-0585             
1 54652U 22166L   25356.05760003  .00000162  00000+0  36035-3 0  9999
2 54652  87.9228 279.3040 0001705  73.7825 286.3496 13.21824918148123
ONEWEB-0586             
1 54653U 22166M   25356.07076247  .00000053  00000+0  97687-4 0  9992
2 54653  87.9223 279.3266 0001873  78.8614 281.2730 13.21823551148124
ONEWEB-0587             
1 54654U 22166N   25355.85354691 -.00000025  00000+0 -91276-4 0  9999
2 54654  87.9234 279.3267 0001475  64.6161 295.5126 13.21826593148256
